{
  "norad_id": 61901,
  "name": "2024-205H",
  "history": [
    {
      "epoch": "2026-04-30T15:17:26.697120Z",
      "apogee_km": 480.861233843827,
      "perigee_km": 467.4673146351215,
      "latitude_deg": -2.280526347191628e-05,
      "longitude_deg": 110.74116024969531,
      "height_km": 483.6549562227851,
      "semi_major_axis_km": 6852.301274239474,
      "eccentricity": 0.00097733,
      "inclination_deg": 97.4122,
      "raan_deg": 198.6834,
      "arg_perigee_deg": 197.6697,
      "mean_anomaly_deg": 162.4205,
      "mean_motion_rev_day": 15.30551996
    },
    {
      "epoch": "2026-05-02T12:47:34.420992Z",
      "apogee_km": 480.7955702785375,
      "perigee_km": 467.15027857503355,
      "latitude_deg": 4.797294305656581e-05,
      "longitude_deg": 148.23345887509322,
      "height_km": 483.78096821906144,
      "semi_major_axis_km": 6852.109924426785,
      "eccentricity": 0.0009957,
      "inclination_deg": 97.4118,
      "raan_deg": 200.5766,
      "arg_perigee_deg": 190.9044,
      "mean_anomaly_deg": 169.1983,
      "mean_motion_rev_day": 15.30616109
    },
    {
      "epoch": "2026-05-03T20:10:21.652896Z",
      "apogee_km": 480.75692742182946,
      "perigee_km": 466.95564254721285,
      "latitude_deg": 2.061714420284578e-06,
      "longitude_deg": 37.55343960191314,
      "height_km": 483.81972958035834,
      "semi_major_axis_km": 6851.993284984521,
      "eccentricity": 0.0010071,
      "inclination_deg": 97.4115,
      "raan_deg": 201.8821,
      "arg_perigee_deg": 186.543,
      "mean_anomaly_deg": 173.5681,
      "mean_motion_rev_day": 15.30655192
    },
    {
      "epoch": "2026-05-04T21:16:33.436704Z",
      "apogee_km": 480.74482276604067,
      "perigee_km": 466.7874960303452,
      "latitude_deg": -1.2701393045476173e-05,
      "longitude_deg": 21.017983863315063,
      "height_km": 483.84272631656484,
      "semi_major_axis_km": 6851.903159398193,
      "eccentricity": 0.0010185,
      "inclination_deg": 97.4112,
      "raan_deg": 202.9267,
      "arg_perigee_deg": 182.92,
      "mean_anomaly_deg": 177.1983,
      "mean_motion_rev_day": 15.30685392
    },
    {
      "epoch": "2026-05-05T20:48:35.088192Z",
      "apogee_km": 480.70388340291174,
      "perigee_km": 466.6275399120823,
      "latitude_deg": 1.0687547744252288e-05,
      "longitude_deg": 28.024097391411708,
      "height_km": 483.8097646775347,
      "semi_major_axis_km": 6851.802711657497,
      "eccentricity": 0.0010272,
      "inclination_deg": 97.4109,
      "raan_deg": 203.9062,
      "arg_perigee_deg": 179.5025,
      "mean_anomaly_deg": 180.6228,
      "mean_motion_rev_day": 15.30719052
    }
  ]
}